KUIPER-00053            
1 64513U 25134P   25223.04210742  .00036566  00000+0  10027-2 0  9995
2 64513  51.8779  96.3842 0001935 264.6042  95.4724 15.36930647  8713
KUIPER-00054            
1 64514U 25134Q   25222.91856078  .00018487  00000+0  51723-3 0  9990
2 64514  51.8760  97.0515 0002754 269.4043  90.6628 15.36697990  8691
KUIPER-00055            
1 64515U 25134R   25223.35312511  .00005093  00000+0  14724-3 0  9998
2 64515  51.8768  94.7225 0000718 195.8533 164.2432 15.37381445  8615
KUIPER-00056            
1 64516U 25134S   25223.05582099  .00037791  00000+0  10514-2 0  9998
2 64516  51.8733  96.4643 0003191 272.5940  87.4681 15.36462591  8718
KUIPER-00057            
1 64517U 25134T   25223.34653256  .00058463  00000+0  17089-2 0  9998
2 64517  51.8699  95.3907 0006468 285.2362  74.7908 15.34704168  8404
KUIPER-00058            
1 64518U 25134U   25222.93610758  .00030667  00000+0  86321-3 0  9995
2 64518  51.8722  97.1544 0004395 279.4230  80.6259 15.36198129  8697
KUIPER-00059            
1 64519U 25134V   25223.35579095  .00033970  00000+0  92179-3 0  9999
2 64519  51.8769  94.7357 0001078 204.9016 155.1919 15.37293260  8294
KUIPER-00060            
1 64520U 25134W   25222.90720658  .00029534  00000+0  80760-3 0  9998
2 64520  51.8764  96.9807 0002291 228.6293 131.4497 15.37124914  8683
